NORAD_CAT_ID,OBJECT_NAME,OBJECT_TYPE,EPOCH,MEAN_MOTION,ECCENTRICITY,INCLINATION,RA_OF_ASC_NODE,ARG_OF_PERICENTER,MEAN_ANOMALY,BSTAR,MEAN_MOTION_DOT,MEAN_MOTION_DDOT,TLE_LINE0,TLE_LINE1,TLE_LINE2,SEMIMAJOR_AXIS,PERIOD,APOGEE,PERIGEE,DECAYED
52669.0,STARLINK-3972,PAYLOAD,2022-07-21 22:00:00,15.08813303,0.0001817,53.2204,350.223,38.0972,278.4385,0.0019526,0.00030902,0.0,0 STARLINK-3972,1 52669U 22053P   22202.91667824  .00030902  00000-0  19526-2 0  9990,2 52669  53.2204 350.2230 0001817  38.0972 278.4385 15.08813303  1300,6917.962,95.439,541.0840000000002,538.57,0.0
52669.0,STARLINK-3972,PAYLOAD,2022-07-22 06:00:00,15.08812106,0.0001686999999999,53.2204,348.725,44.5882,283.5458,0.0064271999999999,0.00103426,0.0,0 STARLINK-3972,1 52669U 22053P   22203.25001157  .00103426  00000-0  64272-2 0  9999,2 52669  53.2204 348.7250 0001687  44.5882 283.5458 15.08812106  1309,6917.965999999999,95.439,540.998,538.664,0.0
52669.0,STARLINK-3972,PAYLOAD,2022-07-22 12:00:00,15.08890731,0.0001771999999999,53.2205,347.6034,46.4164,200.408,-0.00044763,-7.415e-05,0.0,0 STARLINK-3972,1 52669U 22053P   22203.50001157 -.00007415  00000-0 -44763-3 0  9994,2 52669  53.2205 347.6034 0001772  46.4164 200.4080 15.08890731 10823,6917.725,95.434,540.816,538.365,0.0
52669.0,STARLINK-3972,PAYLOAD,2022-07-22 22:00:00,15.08880917,0.0001899999999999,53.2201,345.7340000000001,38.3022,313.0854,-0.0010869999999999,-0.00017566,0.0,0 STARLINK-3972,1 52669U 22053P   22203.91667824 -.00017566  00000-0 -10870-2 0  9997,2 52669  53.2201 345.7340 0001900  38.3022 313.0854 15.08880917  1302,6917.755,95.435,540.935,538.306,0.0
52669.0,STARLINK-3972,PAYLOAD,2022-07-23 06:00:00,15.0882965,0.0001746,53.2203,344.2358,44.4034,318.6323,0.0025624,0.00040717,0.0,0 STARLINK-3972,1 52669U 22053P   22204.25001157  .00040717  00000-0  25624-2 0  9991,2 52669  53.2203 344.2358 0001746  44.4034 318.6323 15.08829650 10945,6917.9119999999975,95.438,540.985,538.569,0.0
52669.0,STARLINK-3972,PAYLOAD,2022-07-23 14:00:01,15.0886764,0.0001875999999999,53.2204,342.7406,42.423,332.2707,-0.0039835,-0.00063178,0.0,0 STARLINK-3972,1 52669U 22053P   22204.58335648 -.00063178  00000-0 -39835-2 0  9999,2 52669  53.2204 342.7406 0001876  42.4230 332.2707 15.08867640  1302,6917.795999999999,95.436,540.9590000000002,538.363,0.0
52669.0,STARLINK-3972,PAYLOAD,2022-07-23 22:00:00,15.08828015,0.0001931,53.2203,341.2448,37.1301,349.0911,0.0011546,0.00018129,0.0,0 STARLINK-3972,1 52669U 22053P   22204.91667824  .00018129  00000-0  11546-2 0  9993,2 52669  53.2203 341.2448 0001931  37.1301 349.0911 15.08828015 11041,6917.917,95.438,541.118,538.446,0.0
52669.0,STARLINK-3972,PAYLOAD,2022-07-24 14:00:01,15.08858426,0.0001909999999999,53.2208,338.2519,40.9398,8.4546,-0.0014904,-0.00023942,0.0,0 STARLINK-3972,1 52669U 22053P   22205.58334491 -.00023942  00000-0 -14904-2 0  9990,2 52669  53.2208 338.2519 0001910  40.9398   8.4546 15.08858426  1303,6917.824000000001,95.436,541.01,538.368,0.0
52669.0,STARLINK-3972,PAYLOAD,2022-07-24 22:00:00,15.0885263,0.0001943,53.2208,336.7558,35.9083,25.0896,-0.0021926,-0.00035027,0.0,0 STARLINK-3972,1 52669U 22053P   22205.91667824 -.00035027  00000-0 -21926-2 0  9995,2 52669  53.2208 336.7558 0001943  35.9083  25.0896 15.08852630 11192,6917.842,95.437,541.0509999999998,538.363,0.0
52669.0,STARLINK-3972,PAYLOAD,2022-07-25 14:00:01,15.08843501,0.0001896999999999,53.2213,333.7631,38.6773,45.492,-0.0013277,-0.00021359,0.0,0 STARLINK-3972,1 52669U 22053P   22206.58334491 -.00021359  00000-0 -13277-2 0  9993,2 52669  53.2213 333.7631 0001897  38.6773  45.4920 15.08843501 11293,6917.87,95.437,541.047,538.422,0.0
52669.0,STARLINK-3972,PAYLOAD,2022-07-25 22:00:00,15.08844109,0.0001950999999999,53.2213,332.267,35.6286,60.1275,-0.00014541,-2.602e-05,0.0,0 STARLINK-3972,1 52669U 22053P   22206.91667824 -.00002602  00000-0 -14541-3 0  9995,2 52669  53.2213 332.2670 0001951  35.6286  60.1275 15.08844109  1300,6917.868,95.437,541.0830000000002,538.383,0.0
52669.0,STARLINK-3972,PAYLOAD,2022-07-26 04:00:01,15.08822218,0.0001754999999999,53.2216,331.1435,40.0793,334.4462,0.0024335999999999,0.00038637,0.0,0 STARLINK-3972,1 52669U 22053P   22207.16668981  .00038637  00000-0  24336-2 0  9995,2 52669  53.2216 331.1435 0001755  40.0793 334.4462 15.08822218 11386,6917.935,95.439,541.014,538.586,0.0
52669.0,STARLINK-3972,PAYLOAD,2022-07-26 14:00:01,15.08858754,0.0001916999999999,53.2217,329.2746,38.8209,80.1336,-0.0011436,-0.00018452,0.0,0 STARLINK-3972,1 52669U 22053P   22207.58334491 -.00018452  00000-0 -11436-2 0  9999,2 52669  53.2217 329.2746 0001917  38.8209  80.1336 15.08858754  1307,6917.823,95.436,541.014,538.362,0.0
52669.0,STARLINK-3972,PAYLOAD,2022-07-26 20:00:01,15.08841782,0.0001971,53.2215,328.1528,35.562,2.1025,0.0021364,0.00033879,0.0,0 STARLINK-3972,1 52669U 22053P   22207.83334491  .00033879  00000-0  21364-2 0  9996,2 52669  53.2215 328.1528 0001971  35.5620   2.1025 15.08841782 11484,6917.875,95.437,541.1030000000002,538.376,0.0
52669.0,STARLINK-3972,PAYLOAD,2022-07-26 22:00:00,15.08864706,0.0001952,53.2215,327.7783,36.7201,93.8404,-0.00060074,-9.843e-05,0.0,0 STARLINK-3972,1 52669U 22053P   22207.91667824 -.00009843  00000-0 -60074-3 0  9992,2 52669  53.2215 327.7783 0001952  36.7201  93.8404 15.08864706  1308,6917.805,95.436,541.02,538.32,0.0
52669.0,STARLINK-3972,PAYLOAD,2022-07-27 14:00:01,15.08843038,0.0001974,53.2217,324.7861,41.4017,112.3958,-0.0010555999999999,-0.0001705,0.0,0 STARLINK-3972,1 52669U 22053P   22208.58334491 -.00017050  00000-0 -10556-2 0  9995,2 52669  53.2217 324.7861 0001974  41.4017 112.3958 15.08843038 11594,6917.871,95.437,541.102,538.371,0.0
52669.0,STARLINK-3972,PAYLOAD,2022-07-27 22:00:00,15.08865375,0.0001964,53.2213,323.2897,39.5857,125.7999,-0.0032909,-0.0005232,0.0,0 STARLINK-3972,1 52669U 22053P   22208.91667824 -.00052320  00000-0 -32909-2 0  9996,2 52669  53.2213 323.2897 0001964  39.5857 125.7999 15.08865375  1301,6917.803000000001,95.436,541.026,538.309,0.0
52669.0,STARLINK-3972,PAYLOAD,2022-07-28 14:00:01,15.08823712,0.0001902,53.2213,320.2979,39.9837,148.5769,-0.00071425,-0.00011632,0.0,0 STARLINK-3972,1 52669U 22053P   22209.58334491 -.00011632  00000-0 -71425-3 0  9999,2 52669  53.2213 320.2979 0001902  39.9837 148.5769 15.08823712  1300,6917.93,95.439,541.111,538.479,0.0
52669.0,STARLINK-3972,PAYLOAD,2022-07-28 22:00:00,15.08840217,0.0001889,53.2209,318.8013,38.8964,161.2323,-0.0015684,-0.00025163,0.0,0 STARLINK-3972,1 52669U 22053P   22209.91667824 -.00025163  00000-0 -15684-2 0  9993,2 52669  53.2209 318.8013 0001889  38.8964 161.2323 15.08840217 11791,6917.88,95.438,541.052,538.438,0.0
52669.0,STARLINK-3972,PAYLOAD,2022-07-29 14:00:01,15.08831842,0.0001935,53.2208,315.8098,40.6749,182.6227,-0.00034384,-5.755e-05,0.0,0 STARLINK-3972,1 52669U 22053P   22210.58334491 -.00005755  00000-0 -34384-3 0  9993,2 52669  53.2208 315.8098 0001935  40.6749 182.6227 15.08831842 11899,6917.905,95.438,541.109,538.432,0.0
52669.0,STARLINK-3972,PAYLOAD,2022-07-29 22:00:00,15.08852011,0.0001899999999999,53.2205,314.313,39.5587,195.3175,-0.0019944,-0.000319,0.0,0 STARLINK-3972,1 52669U 22053P   22210.91667824 -.00031900  00000-0 -19944-2 0  9994,2 52669  53.2205 314.3130 0001900  39.5587 195.3175 15.08852011  1305,6917.844,95.437,541.023,538.394,0.0
52669.0,STARLINK-3972,PAYLOAD,2022-07-30 12:00:00,15.08851628,0.0001935,53.2204,311.6951,41.987,123.1803,-0.0014312,-0.00023001,0.0,0 STARLINK-3972,1 52669U 22053P   22211.50001157 -.00023001  00000-0 -14312-2 0  9998,2 52669  53.2204 311.6951 0001935  41.9870 123.1803 15.08851628 12037,6917.845,95.437,541.048,538.371,0.0
52669.0,STARLINK-3972,PAYLOAD,2022-07-30 14:00:01,15.08839572,0.0002005,53.2204,311.3214,40.8779,217.1926,2.4639e-05,1.04e-06,0.0,0 STARLINK-3972,1 52669U 22053P   22211.58334491  .00000104  00000-0  24639-4 0  9998,2 52669  53.2204 311.3214 0002005  40.8779 217.1926 15.08839572  1303,6917.882,95.438,541.134,538.36,0.0
52669.0,STARLINK-3972,PAYLOAD,2022-07-30 22:00:00,15.08863892,0.0001952,53.2203,309.8244,39.6267,230.034,-0.0021758,-0.00034773,0.0,0 STARLINK-3972,1 52669U 22053P   22211.91667824 -.00034773  00000-0 -21758-2 0  9992,2 52669  53.2203 309.8244 0001952  39.6267 230.0340 15.08863892  1301,6917.807,95.436,541.023,538.322,0.0
52669.0,STARLINK-3972,PAYLOAD,2022-07-31 06:00:02,15.08842263,0.0001868,53.2204,308.3271,45.2669,236.0661,0.0017385,0.0002748999999999,0.0,0 STARLINK-3972,1 52669U 22053P   22212.25002315  .00027490  00000-0  17385-2 0  9995,2 52669  53.2204 308.3271 0001868  45.2669 236.0661 15.08842263 12146,6917.873000000001,95.437,541.031,538.446,0.0
52669.0,STARLINK-3972,PAYLOAD,2022-07-31 14:00:01,15.08852284,0.0002073999999999,53.2203,306.8327,40.4425,252.4383,-0.00027688,-4.694e-05,0.0,0 STARLINK-3972,1 52669U 22053P   22212.58334491 -.00004694  00000-0 -27688-3 0  9995,2 52669  53.2203 306.8327 0002074  40.4425 252.4383 15.08852284  1300,6917.843000000003,95.437,541.143,538.273,0.0
52669.0,STARLINK-3972,PAYLOAD,2022-07-31 20:00:01,15.08870734,0.0002029,53.2202,305.7102,37.6334,173.9498,-0.0035031999999999,-0.00055659,0.0,0 STARLINK-3972,1 52669U 22053P   22212.83334491 -.00055659  00000-0 -35032-2 0  9991,2 52669  53.2202 305.7102 0002029  37.6334 173.9498 15.08870734 12233,6917.786,95.436,541.055,538.248,0.0
52669.0,STARLINK-3972,PAYLOAD,2022-07-31 22:00:00,15.08867382,0.000197,53.2203,305.3357,38.0229,266.4646,-0.0040668,-0.00064482,0.0,0 STARLINK-3972,1 52669U 22053P   22212.91667824 -.00064482  00000-0 -40668-2 0  9994,2 52669  53.2203 305.3357 0001970  38.0229 266.4646 15.08867382  1308,6917.797,95.436,541.025,538.299,0.0
52669.0,STARLINK-3972,PAYLOAD,2022-08-01 14:00:01,15.08831988,0.0002098,53.2205,302.344,38.3763,289.3059,0.00063957,9.903e-05,0.0,0 STARLINK-3972,1 52669U 22053P   22213.58334491  .00009903  00000-0  63957-3 0  9991,2 52669  53.2205 302.3440 0002098  38.3763 289.3059 15.08831988 12350,6917.905,95.438,541.221,538.319,0.0
